[
    {
        "Altitude(m)": 705809.2478188262,
        "Argument of Periapsis(deg)": 0.004556048474650827,
        "Eccentricity": 0.0,
        "Inclination(deg)": 45.0,
        "Latitude(deg)": 38.267945713900914,
        "Longitude(deg)": -156.97532481980485,
        "Mean Anomaly(deg)": 119.15878665899234,
        "RAAN(deg)": 174.99569922341672,
        "Satellite Name": "Constellation 1 777",
        "Satellite Number": 777,
        "Semi-Major Axis(m)": 7083131.272910544,
        "Time(s)": 76
    },
    {
        "Altitude(m)": 705803.7191456049,
        "Argument of Periapsis(deg)": 0.004615996480896233,
        "Eccentricity": 0.0,
        "Inclination(deg)": 45.0,
        "Latitude(deg)": 38.241224937659496,
        "Longitude(deg)": -156.91009654392252,
        "Mean Anomaly(deg)": 119.21948779924222,
        "RAAN(deg)": 174.99564263425117,
        "Satellite Name": "Constellation 1 777",
        "Satellite Number": 777,
        "Semi-Major Axis(m)": 7083131.272910544,
        "Time(s)": 77
    },
    {
        "Altitude(m)": 705798.1848654437,
        "Argument of Periapsis(deg)": 0.004675944487141638,
        "Eccentricity": 0.0,
        "Inclination(deg)": 45.0,
        "Latitude(deg)": 38.21446311976202,
        "Longitude(deg)": -156.84491900876515,
        "Mean Anomaly(deg)": 119.28018893949216,
        "RAAN(deg)": 174.9955860450856,
        "Satellite Name": "Constellation 1 777",
        "Satellite Number": 777,
        "Semi-Major Axis(m)": 7083131.272910544,
        "Time(s)": 78
    },
    {
        "Altitude(m)": 705792.6450124716,
        "Argument of Periapsis(deg)": 0.004735892493387044,
        "Eccentricity": 0.0,
        "Inclination(deg)": 45.0,
        "Latitude(deg)": 38.187660328802735,
        "Longitude(deg)": -156.77979220602202,
        "Mean Anomaly(deg)": 119.34089007974201,
        "RAAN(deg)": 174.99552945592,
        "Satellite Name": "Constellation 1 777",
        "Satellite Number": 777,
        "Semi-Major Axis(m)": 7083131.272910544,
        "Time(s)": 79
    },
    {
        "Altitude(m)": 705787.0996208625,
        "Argument of Periapsis(deg)": 0.004795840499632449,
        "Eccentricity": 0.0,
        "Inclination(deg)": 45.0,
        "Latitude(deg)": 38.16081663334533,
        "Longitude(deg)": -156.71471612702786,
        "Mean Anomaly(deg)": 119.40159121999194,
        "RAAN(deg)": 174.99547286675443,
        "Satellite Name": "Constellation 1 777",
        "Satellite Number": 777,
        "Semi-Major Axis(m)": 7083131.272910544,
        "Time(s)": 80
    },
    {
        "Altitude(m)": 705781.5487248346,
        "Argument of Periapsis(deg)": 0.004855788505877855,
        "Eccentricity": 0.0,
        "Inclination(deg)": 45.0,
        "Latitude(deg)": 38.13393210192303,
        "Longitude(deg)": -156.64969076276552,
        "Mean Anomaly(deg)": 119.46229236024178,
        "RAAN(deg)": 174.99541627758887,
        "Satellite Name": "Constellation 1 777",
        "Satellite Number": 777,
        "Semi-Major Axis(m)": 7083131.272910544,
        "Time(s)": 81
    },
    {
        "Altitude(m)": 705775.9923586445,
        "Argument of Periapsis(deg)": 0.00491573651212326,
        "Eccentricity": 0.0,
        "Inclination(deg)": 45.0,
        "Latitude(deg)": 38.10700680303797,
        "Longitude(deg)": -156.58471627196323,
        "Mean Anomaly(deg)": 119.5229935004917,
        "RAAN(deg)": 174.9953596884233,
        "Satellite Name": "Constellation 1 777",
        "Satellite Number": 777,
        "Semi-Major Axis(m)": 7083131.272910544,
        "Time(s)": 82
    },
    {
        "Altitude(m)": 705770.4305565939,
        "Argument of Periapsis(deg)": 0.004975684518368666,
        "Eccentricity": 0.0,
        "Inclination(deg)": 45.0,
        "Latitude(deg)": 38.080040805159776,
        "Longitude(deg)": -156.5197923087088,
        "Mean Anomaly(deg)": 119.58369464074164,
        "RAAN(deg)": 174.99530309925774,
        "Satellite Name": "Constellation 1 777",
        "Satellite Number": 777,
        "Semi-Major Axis(m)": 7083131.272910544,
        "Time(s)": 83
    },
    {
        "Altitude(m)": 705764.8633530284,
        "Argument of Periapsis(deg)": 0.005035632524614072,
        "Eccentricity": 0.0,
        "Inclination(deg)": 45.0,
        "Latitude(deg)": 38.05303417672708,
        "Longitude(deg)": -156.45491903103323,
        "Mean Anomaly(deg)": 119.6443957809915,
        "RAAN(deg)": 174.99524651009216,
        "Satellite Name": "Constellation 1 777",
        "Satellite Number": 777,
        "Semi-Major Axis(m)": 7083131.272910544,
        "Time(s)": 84
    },
    {
        "Altitude(m)": 705759.2907823338,
        "Argument of Periapsis(deg)": 0.0050955805308594785,
        "Eccentricity": 0.0,
        "Inclination(deg)": 45.0,
        "Latitude(deg)": 38.02598698614559,
        "Longitude(deg)": -156.39009642852324,
        "Mean Anomaly(deg)": 119.70509692124149,
        "RAAN(deg)": 174.99518992092658,
        "Satellite Name": "Constellation 1 777",
        "Satellite Number": 777,
        "Semi-Major Axis(m)": 7083131.272910544,
        "Time(s)": 85
    },
    {
        "Altitude(m)": 705753.7128789397,
        "Argument of Periapsis(deg)": 0.005155528537104883,
        "Eccentricity": 0.0,
        "Inclination(deg)": 45.0,
        "Latitude(deg)": 37.99889930178822,
        "Longitude(deg)": -156.32532449042083,
        "Mean Anomaly(deg)": 119.76579806149132,
        "RAAN(deg)": 174.99513333176102,
        "Satellite Name": "Constellation 1 777",
        "Satellite Number": 777,
        "Semi-Major Axis(m)": 7083131.272910544,
        "Time(s)": 86
    },
    {
        "Altitude(m)": 705748.1296773115,
        "Argument of Periapsis(deg)": 0.0052154765433502885,
        "Eccentricity": 0.0,
        "Inclination(deg)": 45.0,
        "Latitude(deg)": 37.97177119199446,
        "Longitude(deg)": -156.2606032056239,
        "Mean Anomaly(deg)": 119.82649920174124,
        "RAAN(deg)": 174.99507674259544,
        "Satellite Name": "Constellation 1 777",
        "Satellite Number": 777,
        "Semi-Major Axis(m)": 7083131.272910544,
        "Time(s)": 87
    },
    {
        "Altitude(m)": 705742.5412119624,
        "Argument of Periapsis(deg)": 0.005275424549595694,
        "Eccentricity": 0.0,
        "Inclination(deg)": 45.0,
        "Latitude(deg)": 37.944602725070176,
        "Longitude(deg)": -156.19593256268817,
        "Mean Anomaly(deg)": 119.88720034199113,
        "RAAN(deg)": 174.9950201534299,
        "Satellite Name": "Constellation 1 777",
        "Satellite Number": 777,
        "Semi-Major Axis(m)": 7083131.272910544,
        "Time(s)": 88
    },
    {
        "Altitude(m)": 705736.9475174483,
        "Argument of Periapsis(deg)": 0.0053353725558411,
        "Eccentricity": 0.0,
        "Inclination(deg)": 45.0,
        "Latitude(deg)": 37.91739396928724,
        "Longitude(deg)": -156.13131271792537,
        "Mean Anomaly(deg)": 119.94790148224106,
        "RAAN(deg)": 174.99496356426434,
        "Satellite Name": "Constellation 1 777",
        "Satellite Number": 777,
        "Semi-Major Axis(m)": 7083131.272910544,
        "Time(s)": 89
    },
    {
        "Altitude(m)": 705731.3486283628,
        "Argument of Periapsis(deg)": 0.005395320562086505,
        "Eccentricity": 0.0,
        "Inclination(deg)": 45.0,
        "Latitude(deg)": 37.890144992882256,
        "Longitude(deg)": -156.06674332301714,
        "Mean Anomaly(deg)": 120.00860262249091,
        "RAAN(deg)": 174.99490697509873,
        "Satellite Name": "Constellation 1 777",
        "Satellite Number": 777,
        "Semi-Major Axis(m)": 7083131.272910544,
        "Time(s)": 90
    },
    {
        "Altitude(m)": 705725.7445793378,
        "Argument of Periapsis(deg)": 0.00545526856833191,
        "Eccentricity": 0.0,
        "Inclination(deg)": 45.0,
        "Latitude(deg)": 37.86285586405747,
        "Longitude(deg)": -156.0022245335976,
        "Mean Anomaly(deg)": 120.0693037627408,
        "RAAN(deg)": 174.99485038593318,
        "Satellite Name": "Constellation 1 777",
        "Satellite Number": 777,
        "Semi-Major Axis(m)": 7083131.272910544,
        "Time(s)": 91
    },
    {
        "Altitude(m)": 705720.1354050506,
        "Argument of Periapsis(deg)": 0.005515216574577317,
        "Eccentricity": 0.0,
        "Inclination(deg)": 45.0,
        "Latitude(deg)": 37.83552665097967,
        "Longitude(deg)": -155.93775633686772,
        "Mean Anomaly(deg)": 120.13000490299072,
        "RAAN(deg)": 174.9947937967676,
        "Satellite Name": "Constellation 1 777",
        "Satellite Number": 777,
        "Semi-Major Axis(m)": 7083131.272910544,
        "Time(s)": 92
    },
    {
        "Altitude(m)": 705714.5211402236,
        "Argument of Periapsis(deg)": 0.005575164580822722,
        "Eccentricity": 0.0,
        "Inclination(deg)": 45.0,
        "Latitude(deg)": 37.80815742177974,
        "Longitude(deg)": -155.87333871969332,
        "Mean Anomaly(deg)": 120.19070604324065,
        "RAAN(deg)": 174.99473720760204,
        "Satellite Name": "Constellation 1 777",
        "Satellite Number": 777,
        "Semi-Major Axis(m)": 7083131.272910544,
        "Time(s)": 93
    },
    {
        "Altitude(m)": 705708.9018196067,
        "Argument of Periapsis(deg)": 0.005635112587068129,
        "Eccentricity": 0.0,
        "Inclination(deg)": 45.0,
        "Latitude(deg)": 37.78074824455239,
        "Longitude(deg)": -155.8089716686068,
        "Mean Anomaly(deg)": 120.25140718349049,
        "RAAN(deg)": 174.9946806184365,
        "Satellite Name": "Constellation 1 777",
        "Satellite Number": 777,
        "Semi-Major Axis(m)": 7083131.272910544,
        "Time(s)": 94
    }
]